STARLINK-5492           
1 55331U 23013A   23321.81002156  .00000610  00000+0  60193-4 0  9999
2 55331  43.0027 200.7206 0001259 270.1849  89.8849 15.02540496 45348
STARLINK-5491           
1 55332U 23013B   23321.32717532  .00001379  00000+0  11711-3 0  9991
2 55332  43.0029 190.0946 0001560 275.5286  84.5378 15.02536209 44998
STARLINK-5493           
1 55333U 23013C   23321.80447766  .00000886  00000+0  80658-4 0  9993
2 55333  43.0039 200.6773 0001082 249.1286 110.9441 15.02532106 45349
STARLINK-5652           
1 55334U 23013D   23321.12508943 -.00002810  00000+0 -19731-3 0  9998
2 55334  43.0029 201.5590 0001263 269.3887  90.6811 15.01724093 44844
STARLINK-5660           
1 55335U 23013E   23321.80114259  .00000632  00000+0  61857-4 0  9992
2 55335  43.0020 200.6544 0001254 270.9010  89.1689 15.02539342 45345
STARLINK-5655           
1 55336U 23013F   23321.78251765  .00001092  00000+0  95924-4 0  9997
2 55336  43.0016 187.4143 0001444 265.4791  94.5886 15.02538609 45494
STARLINK-5667           
1 55337U 23013G   23321.11663551  .00001272  00000+0  10924-3 0  9991
2 55337  43.0037 191.0563 0001180 273.5926  86.4781 15.02537490 44964
STARLINK-5658           
1 55338U 23013H   23321.40005403  .00001233  00000+0  10635-3 0  9996
2 55338  43.0025 202.8036 0001270 276.5813  83.4884 15.02539782 44851
STARLINK-5671           
1 55339U 23013J   23321.79337437  .00001962  00000+0  16028-3 0  9995
2 55339  43.0015 200.5949 0001032 281.9430  78.1296 15.02532734 45343
STARLINK-5675           
1 55340U 23013K   23321.79115226 -.00000110  00000+0  68956-5 0  9991
2 55340  43.0029 200.5779 0001234 263.2771  96.7931 15.02536833 45342
STARLINK-5670           
1 55341U 23013L   23321.79559428  .00001542  00000+0  12919-3 0  9993
2 55341  43.0022 200.6130 0001221 263.7823  96.2880 15.02537561 45344
STARLINK-5657           
1 55342U 23013M   23321.79004395  .00000796  00000+0  73996-4 0  9995
2 55342  43.0025 200.5685 0001286 268.6965  91.3730 15.02535779 45343
STARLINK-5661           
1 55343U 23013N   23321.11971261  .00001994  00000+0  16260-3 0  9998
2 55343  43.0020 204.1376 0001277 271.2563  88.8133 15.02540192 44814
STARLINK-5662           
1 55344U 23013P   23321.78671825 -.00001060  00000+0 -63439-4 0  9992
2 55344  43.0028 200.5445 0001137 268.7236  91.3476 15.02532388 45349
STARLINK-5653           
1 55345U 23013Q   23321.78475491 -.00000346  00000+0 -10556-4 0  9992
2 55345  43.0034 187.4999 0001194 271.3703  88.7003 15.02529565 45491
STARLINK-5631           
1 55346U 23013R   23321.78116554  .00000494  00000+0  51657-4 0  9994
2 55346  43.0017 200.5001 0001303 268.0951  91.9743 15.02533933 45349
STARLINK-5663           
1 55347U 23013S   23321.77006746  .00001048  00000+0  92622-4 0  9998
2 55347  43.0036 200.4186 0001163 274.9290  85.1420 15.02537182 45347
STARLINK-5609           
1 55348U 23013T   23321.77894861 -.00001087  00000+0 -65431-4 0  9995
2 55348  43.0028 200.4833 0001194 269.0568  91.0138 15.02529322 45344
STARLINK-5666           
1 55349U 23013U   23321.77561575 -.00001118  00000+0 -67672-4 0  9993
2 55349  43.0018 200.4605 0001266 269.4102  90.6595 15.02534064 45340
STARLINK-5668           
1 55350U 23013V   23321.37341951  .00000951  00000+0  85466-4 0  9998
2 55350  43.0026 202.6039 0001254 275.0333  85.0366 15.02534864 44859
STARLINK-5659           
1 55351U 23013W   23321.36231822  .00001152  00000+0  10034-3 0  9995
2 55351  43.0016 202.5195 0001168 271.4582  88.6127 15.02537647 44857
STARLINK-5547           
1 55352U 23013X   23321.36786890 -.00000469  00000+0 -19645-4 0  9996
2 55352  43.0039 202.5612 0001118 271.4021  88.6693 15.02537751 44854
STARLINK-5608           
1 55353U 23013Y   23321.81323749 -.00000642  00000+0 -32487-4 0  9999
2 55353  43.0026 199.8816 0001229 269.6189  90.4512 15.02533621 45351
STARLINK-5649           
1 55354U 23013Z   23321.36565039 -.00000602  00000+0 -29470-4 0  9994
2 55354  43.0041 202.5422 0001144 269.8794  90.1918 15.02532935 44852
STARLINK-5647           
1 55355U 23013AA  23321.75785578  .00000326  00000+0  39175-4 0  9994
2 55355  43.0027 200.3067 0001257 271.2810  88.7888 15.02534651 45340
STARLINK-5651           
1 55357U 23013AC  23321.75564356  .00004798  00000+0  36983-3 0  9995
2 55357  43.0012 200.3089 0001166 269.6144  90.4564 15.02551657 45346
STARLINK-5622           
1 55358U 23013AD  23321.75897041 -.00000317  00000+0 -84028-5 0  9996
2 55358  43.0038 200.3352 0001144 272.9394  87.1317 15.02532332 45346
STARLINK-5641           
1 55359U 23013AE  23321.75231428  .00008001  00000+0  60698-3 0  9999
2 55359  43.0029 200.2829 0001150 266.6779  93.3932 15.02519500 45343
STARLINK-5664           
1 55360U 23013AF  23321.40300954  .00000359  00000+0  41609-4 0  9994
2 55360  43.0023 214.9521 0001186 270.5766  89.4941 15.02534661 44710
STARLINK-5665           
1 55361U 23013AG  23321.37367395  .00001158  00000+0  10076-3 0  9994
2 55361  43.0017 189.5899 0001243 267.0967  92.9733 15.02537683 45005
STARLINK-5574           
1 55362U 23013AH  23321.77586952  .00000199  00000+0  29773-4 0  9990
2 55362  43.0026 187.4467 0001184 268.8417  91.2290 15.02535962 45498
STARLINK-5648           
1 55363U 23013AJ  23321.71553604  .00000629  00000+0  61602-4 0  9998
2 55363  43.0020 213.8599 0001226 264.1207  95.9495 15.02534068 45186
STARLINK-5627           
1 55364U 23013AK  23321.81656457  .00002201  00000+0  17791-3 0  9997
2 55364  43.0023 199.9060 0001190 272.4456  87.6250 15.02537512 45358
STARLINK-5639           
1 55365U 23013AL  23321.70887741  .00000173  00000+0  27903-4 0  9991
2 55365  43.0020 213.8085 0001178 265.4413  94.6294 15.02533018 45184
STARLINK-5654           
1 55366U 23013AM  23321.04683438 -.00000241  00000+0 -28066-5 0  9996
2 55366  43.0029 191.4372 0001146 266.7928  93.2783 15.02536624 44952
STARLINK-5635           
1 55367U 23013AN  23321.37472835 -.00002249  00000+0 -15484-3 0  9998
2 55367  43.0007 189.5958 0001109 262.3113  97.7603 15.01725271 45008
STARLINK-5625           
1 55368U 23013AP  23321.37034176  .00000482  00000+0  50729-4 0  9998
2 55368  43.0011 189.5649 0001226 266.3182  93.7520 15.02537024 45003
STARLINK-5644           
1 55369U 23013AQ  23321.44074484  .00000412  00000+0  45598-4 0  9994
2 55369  43.0023 215.2363 0001229 261.4999  98.5704 15.02535310 44712
STARLINK-5027           
1 55370U 23013AR  23321.77868964  .00000394  00000+0  44238-4 0  9995
2 55370  43.0030 213.4744 0001159 264.6032  95.4678 15.02530341 45198
STARLINK-5590           
1 55371U 23013AS  23321.43186335  .00000781  00000+0  72860-4 0  9996
2 55371  43.0027 215.1705 0001072 274.7810  85.2910 15.02535026 45631
STARLINK-5568           
1 55372U 23013AT  23321.43741568  .00001144  00000+0  99708-4 0  9996
2 55372  43.0013 215.2133 0001288 276.4593  83.6103 15.02538490 44711
STARLINK-5581           
1 55373U 23013AU  23321.79200394 -.00002090  00000+0 -13972-3 0  9994
2 55373  43.0022 213.5643 0001269 262.2205  97.8494 15.02530464 45197
STARLINK-5578           
1 55374U 23013AV  23321.43519717 -.00000405  00000+0 -14924-4 0  9995
2 55374  43.0030 215.1959 0001012 277.2351  82.8377 15.02538329 44718
STARLINK-5588           
1 55375U 23013AW  23321.42520543  .00002676  00000+0  21304-3 0  9993
2 55375  43.0025 215.1201 0001138 277.3167  82.7546 15.02541652 44718
STARLINK-5586           
1 55376U 23013AX  23321.37128164  .00000911  00000+0  84166-4 0  9997
2 55376  43.0034 189.5697 0001172 272.5908  87.4800 15.01725027 45007
STARLINK-5567           
1 55377U 23013AY  23321.47836783  .00000950  00000+0  85365-4 0  9997
2 55377  43.0016 214.6589 0001273 271.9289  88.1407 15.02537047 44728
STARLINK-5572           
1 55378U 23013AZ  23321.42853408  .00001477  00000+0  12439-3 0  9992
2 55378  43.0024 215.1434 0001134 277.0074  83.0639 15.02539268 44715
STARLINK-5569           
1 55379U 23013BA  23321.74992314 -.00012593  00000+0 -92139-3 0  9996
2 55379  43.0034 213.2550 0002383 293.5479  66.5113 15.02427885 45191
STARLINK-5571           
1 55380U 23013BB  23321.76144248  .00000903  00000+0  81907-4 0  9997
2 55380  43.0018 187.3374 0001238 273.1220  86.9481 15.02533299 45490
STARLINK-5575           
1 55381U 23013BC  23321.41410561  .00002253  00000+0  18179-3 0  9994
2 55381  43.0024 215.0354 0001322 261.5852  98.4841 15.02537069 44712
STARLINK-5576           
1 55382U 23013BD  23321.42187512  .00001380  00000+0  11723-3 0  9991
2 55382  43.0022 215.0963 0001264 271.8002  88.2695 15.02539235 44714
STARLINK-5531           
1 55383U 23013BE  23321.62515747  .00000255  00000+0  33955-4 0  9991
2 55383  43.0025 188.0312 0001191 274.0031  86.0675 15.02533488 45046
STARLINK-5537           
1 55384U 23013BF  23321.41965813  .00002744  00000+0  21807-3 0  9999
2 55384  43.0018 215.0797 0001151 269.2907  90.7804 15.02538460 44715
STARLINK-5556           
1 55385U 23013BG  23321.80410097 -.00000512  00000+0 -22874-4 0  9991
2 55385  43.0033 212.8012 0001193 267.8925  92.1780 15.02529973 45201
STARLINK-5555           
1 55386U 23013BH  23321.80742543  .00001242  00000+0  10697-3 0  9994
2 55386  43.0030 212.8259 0001275 274.0594  86.0102 15.02538280 45206
STARLINK-5077           
1 55391U 23014A   23321.59030998 -.00000890  00000+0 -68307-4 0  9993
2 55391  70.0021  29.1568 0002217 269.6499  90.4405 14.97512249 45794
STARLINK-5085           
1 55392U 23014B   23321.53071275 -.00000132  00000+0 -32534-5 0  9994
2 55392  70.0002  10.2776 0002552 259.0467 101.0405 14.98329586 46258
STARLINK-4786           
1 55393U 23014C   23321.60604016  .00000313  00000+0  34006-4 0  9992
2 55393  69.9995  30.0266 0003052 266.7121  93.3689 14.98334520 44832
STARLINK-5230           
1 55394U 23014D   23321.53511060 -.00000656  00000+0 -47192-4 0  9993
2 55394  69.9998  30.1686 0003008 271.0080  89.0734 14.98329614 45761
STARLINK-5274           
